{
  "type": "FeatureCollection",
  "features": [
    {
      "type": "Feature",
      "properties": {
        "norad_id": 65731,
        "name": "1998-067XK",
        "group": "stations",
        "lat": -25.813787509549762,
        "lon": 116.37209472978644,
        "alt_km": 374.382185652561,
        "timestamp": "2025-12-12T09:49:07.501086+00:00",
        "meta_object_name": "1998-067XK",
        "meta_object_id": "1998-067XK",
        "meta_epoch": "2025-12-12T03:50:05.091360",
        "meta_mean_motion": 15.65576391,
        "meta_eccentricity": 0.0005053,
        "meta_inclination": 51.6278,
        "meta_ra_of_asc_node": 140.1747,
        "meta_arg_of_pericenter": 242.2687,
        "meta_mean_anomaly": 117.7796,
        "meta_ephemeris_type": 0,
        "meta_classification_type": "U",
        "meta_norad_cat_id": 65731,
        "meta_element_set_no": 999,
        "meta_rev_at_epoch": 1305,
        "meta_bstar": 0.0011399,
        "meta_mean_motion_dot": 0.00118061,
        "meta_mean_motion_ddot": 0,
        "tle_line1": "1 65731U 98067XK  25346.15978115  .00118061  00000+0  11399-2 0  9990",
        "tle_line2": "2 65731  51.6278 140.1747 0005053 242.2687 117.7796 15.65576391 13056"
      },
      "geometry": {
        "type": "Point",
        "coordinates": [
          116.37209472978644,
          -25.813787509549762
        ]
      }
    },
    {
      "type": "Feature",
      "properties": {
        "norad_id": 65732,
        "name": "RSP-03",
        "group": "stations",
        "lat": -45.08477687114053,
        "lon": 85.5792460676442,
        "alt_km": 364.9087474357075,
        "timestamp": "2025-12-12T09:49:07.501096+00:00",
        "meta_object_name": "RSP-03",
        "meta_object_id": "1998-067XL",
        "meta_epoch": "2025-12-11T11:09:18.310464",
        "meta_mean_motion": 15.68184189,
        "meta_eccentricity": 0.00058259,
        "meta_inclination": 51.626,
        "meta_ra_of_asc_node": 143.0256,
        "meta_arg_of_pericenter": 242.1359,
        "meta_mean_anomaly": 117.9048,
        "meta_ephemeris_type": 0,
        "meta_classification_type": "U",
        "meta_norad_cat_id": 65732,
        "meta_element_set_no": 999,
        "meta_rev_at_epoch": 1296,
        "meta_bstar": 0.0016947067,
        "meta_mean_motion_dot": 0.00197326,
        "meta_mean_motion_ddot": 0,
        "tle_line1": "1 65732U 98067XL  25345.46479526  .00197326  00000+0  16947-2 0  9991",
        "tle_line2": "2 65732  51.6260 143.0256 0005825 242.1359 117.9048 15.68184189 12961"
      },
      "geometry": {
        "type": "Point",
        "coordinates": [
          85.5792460676442,
          -45.08477687114053
        ]
      }
    },
    {
      "type": "Feature",
      "properties": {
        "norad_id": 65733,
        "name": "GHS-01",
        "group": "stations",
        "lat": -19.567233253523938,
        "lon": -26.740783206057728,
        "alt_km": 347.3024272863004,
        "timestamp": "2025-12-12T09:49:07.501106+00:00",
        "meta_object_name": "GHS-01",
        "meta_object_id": "1998-067XM",
        "meta_epoch": "2025-12-11T17:42:59.976288",
        "meta_mean_motion": 15.74255219,
        "meta_eccentricity": 0.0007045,
        "meta_inclination": 51.6266,
        "meta_ra_of_asc_node": 140.35,
        "meta_arg_of_pericenter": 274.7166,
        "meta_mean_anomaly": 85.3028,
        "meta_ephemeris_type": 0,
        "meta_classification_type": "U",
        "meta_norad_cat_id": 65733,
        "meta_element_set_no": 999,
        "meta_rev_at_epoch": 1302,
        "meta_bstar": 0.0015474625,
        "meta_mean_motion_dot": 0.002337,
        "meta_mean_motion_ddot": 0,
        "tle_line1": "1 65733U 98067XM  25345.73819417  .00233700  00000+0  15475-2 0  9991",
        "tle_line2": "2 65733  51.6266 140.3500 0007045 274.7166  85.3028 15.74255219 13027"
      },
      "geometry": {
        "type": "Point",
        "coordinates": [
          -26.740783206057728,
          -19.567233253523938
        ]
      }
    },
    {
      "type": "Feature",
      "properties": {
        "norad_id": 65941,
        "name": "YOTSUBA-KULOVER",
        "group": "stations",
        "lat": 51.35590730967108,
        "lon": -120.6702291196141,
        "alt_km": 383.2229490089112,
        "timestamp": "2025-12-12T09:49:07.501119+00:00",
        "meta_object_name": "YOTSUBA-KULOVER",
        "meta_object_id": "1998-067XN",
        "meta_epoch": "2025-12-11T19:34:16.498272",
        "meta_mean_motion": 15.59284629,
        "meta_eccentricity": 0.00014791,
        "meta_inclination": 51.6283,
        "meta_ra_of_asc_node": 144.6232,
        "meta_arg_of_pericenter": 240.6156,
        "meta_mean_anomaly": 119.469,
        "meta_ephemeris_type": 0,
        "meta_classification_type": "U",
        "meta_norad_cat_id": 65941,
        "meta_element_set_no": 999,
        "meta_rev_at_epoch": 971,
        "meta_bstar": 0.00099850147,
        "meta_mean_motion_dot": 0.00080384,
        "meta_mean_motion_ddot": 0,
        "tle_line1": "1 65941U 98067XN  25345.81546873  .00080384  00000+0  99850-3 0  9992",
        "tle_line2": "2 65941  51.6283 144.6232 0001479 240.6156 119.4690 15.59284629  9717"
      },
      "geometry": {
        "type": "Point",
        "coordinates": [
          -120.6702291196141,
          51.35590730967108
        ]
      }
    },
    {
      "type": "Feature",
      "properties": {
        "norad_id": 65942,
        "name": "BOTAN",
        "group": "stations",
        "lat": 42.322910864916956,
        "lon": -172.85198215764507,
        "alt_km": 376.12510832189037,
        "timestamp": "2025-12-12T09:49:07.501130+00:00",
        "meta_object_name": "BOTAN",
        "meta_object_id": "1998-067XP",
        "meta_epoch": "2025-12-11T19:45:11.743776",
        "meta_mean_motion": 15.62613075,
        "meta_eccentricity": 0.00032624,
        "meta_inclination": 51.6277,
        "meta_ra_of_asc_node": 143.9237,
        "meta_arg_of_pericenter": 230.4423,
        "meta_mean_anomaly": 129.6283,
        "meta_ephemeris_type": 0,
        "meta_classification_type": "U",
        "meta_norad_cat_id": 65942,
        "meta_element_set_no": 999,
        "meta_rev_at_epoch": 972,
        "meta_bstar": 0.0013163982,
        "meta_mean_motion_dot": 0.00121329,
        "meta_mean_motion_ddot": 0,
        "tle_line1": "1 65942U 98067XP  25345.82305259  .00121329  00000+0  13164-2 0  9993",
        "tle_line2": "2 65942  51.6277 143.9237 0003262 230.4423 129.6283 15.62613075  9721"
      },
      "geometry": {
        "type": "Point",
        "coordinates": [
          -172.85198215764507,
          42.322910864916956
        ]
      }
    },
    {
      "type": "Feature",
      "properties": {
        "norad_id": 65943,
        "name": "E-KAGAKU-1",
        "group": "stations",
        "lat": 51.33819759804903,
        "lon": -120.39296673960676,
        "alt_km": 383.1220199390409,
        "timestamp": "2025-12-12T09:49:07.501141+00:00",
        "meta_object_name": "E-KAGAKU-1",
        "meta_object_id": "1998-067XQ",
        "meta_epoch": "2025-12-10T06:39:08.237952",
        "meta_mean_motion": 15.5900432,
        "meta_eccentricity": 0.00052507,
        "meta_inclination": 51.6298,
        "meta_ra_of_asc_node": 152.3458,
        "meta_arg_of_pericenter": 191.2269,
        "meta_mean_anomaly": 168.8608,
        "meta_ephemeris_type": 0,
        "meta_classification_type": "U",
        "meta_norad_cat_id": 65943,
        "meta_element_set_no": 999,
        "meta_rev_at_epoch": 947,
        "meta_bstar": 0.0012588803,
        "meta_mean_motion_dot": 0.00100705,
        "meta_mean_motion_ddot": 0,
        "tle_line1": "1 65943U 98067XQ  25344.27717868  .00100705  00000+0  12589-2 0  9990",
        "tle_line2": "2 65943  51.6298 152.3458 0005250 191.2269 168.8608 15.59004320  9476"
      },
      "geometry": {
        "type": "Point",
        "coordinates": [
          -120.39296673960676,
          51.33819759804903
        ]
      }
    },
    {
      "type": "Feature",
      "properties": {
        "norad_id": 66052,
        "name": "HRC MONOBLOCK CAMERA",
        "group": "stations",
        "lat": 51.321584152514404,
        "lon": -135.0472423486749,
        "alt_km": 398.0094010618195,
        "timestamp": "2025-12-12T09:49:07.501152+00:00",
        "meta_object_name": "HRC MONOBLOCK CAMERA",
        "meta_object_id": "1998-067XR",
        "meta_epoch": "2025-12-12T01:44:18.858336",
        "meta_mean_motion": 15.54060412,
        "meta_eccentricity": 0.0003436,
        "meta_inclination": 51.6287,
        "meta_ra_of_asc_node": 144.8345,
        "meta_arg_of_pericenter": 180.6956,
        "meta_mean_anomaly": 179.403,
        "meta_ephemeris_type": 0,
        "meta_classification_type": "U",
        "meta_norad_cat_id": 66052,
        "meta_element_set_no": 999,
        "meta_rev_at_epoch": 873,
        "meta_bstar": 0.00072873,
        "meta_mean_motion_dot": 0.00047939,
        "meta_mean_motion_ddot": 0,
        "tle_line1": "1 66052U 98067XR  25346.07244049  .00047939  00000+0  72873-3 0  9990",
        "tle_line2": "2 66052  51.6287 144.8345 0003436 180.6956 179.4030 15.54060412  8730"
      },
      "geometry": {
        "type": "Point",
        "coordinates": [
          -135.0472423486749,
          51.321584152514404
        ]
      }
    }
  ]
}